{
  "norad_id": 50199,
  "name": "STARLINK-3270",
  "history": [
    {
      "epoch": "2026-03-28T20:51:30.710016Z",
      "apogee_km": 540.5693725030669,
      "perigee_km": 538.9272048932353,
      "latitude_deg": 7.438053283087629e-05,
      "longitude_deg": 13.859531581445935,
      "height_km": 540.6249737747144,
      "semi_major_axis_km": 6917.88528869815,
      "eccentricity": 0.00011869,
      "inclination_deg": 53.2158,
      "raan_deg": 153.0208,
      "arg_perigee_deg": 88.6686,
      "mean_anomaly_deg": 271.4443,
      "mean_motion_rev_day": 15.08838397
    },
    {
      "epoch": "2026-03-29T04:48:26.574048Z",
      "apogee_km": 540.608120773898,
      "perigee_km": 538.9021685710204,
      "latitude_deg": 4.892308892565814e-05,
      "longitude_deg": -107.18620181297982,
      "height_km": 540.6624962289623,
      "semi_major_axis_km": 6917.892144672459,
      "eccentricity": 0.0001233,
      "inclination_deg": 53.216,
      "raan_deg": 151.5343,
      "arg_perigee_deg": 90.7811,
      "mean_anomaly_deg": 269.3323,
      "mean_motion_rev_day": 15.08836154
    },
    {
      "epoch": "2026-03-29T07:59:12.708672Z",
      "apogee_km": 540.6246922614118,
      "perigee_km": 538.8719768330511,
      "latitude_deg": -2.0567950037686417e-05,
      "longitude_deg": -155.60365769558143,
      "height_km": 540.6615669555727,
      "semi_major_axis_km": 6917.885334547232,
      "eccentricity": 0.00012668,
      "inclination_deg": 53.2162,
      "raan_deg": 150.9397,
      "arg_perigee_deg": 91.1457,
      "mean_anomaly_deg": 268.968,
      "mean_motion_rev_day": 15.08838382
    },
    {
      "epoch": "2026-03-30T12:36:09.405504Z",
      "apogee_km": 540.6520257213297,
      "perigee_km": 538.8467340916295,
      "latitude_deg": 3.1224354391667045e-05,
      "longitude_deg": 128.6324379036521,
      "height_km": 540.6319614809955,
      "semi_major_axis_km": 6917.886379906479,
      "eccentricity": 0.00013048,
      "inclination_deg": 53.216,
      "raan_deg": 145.5872,
      "arg_perigee_deg": 89.1718,
      "mean_anomaly_deg": 270.9424,
      "mean_motion_rev_day": 15.0883804
    },
    {
      "epoch": "2026-03-30T20:33:05.060448Z",
      "apogee_km": 540.6567746047504,
      "perigee_km": 538.8382011305785,
      "latitude_deg": 2.1797458453042495e-05,
      "longitude_deg": 7.587290346610038,
      "height_km": 540.6408261317919,
      "semi_major_axis_km": 6917.884487867664,
      "eccentricity": 0.00013144,
      "inclination_deg": 53.2159,
      "raan_deg": 144.1004,
      "arg_perigee_deg": 89.8571,
      "mean_anomaly_deg": 270.2572,
      "mean_motion_rev_day": 15.08838659
    }
  ]
}